{
  "norad_id": 48768,
  "name": "ONEWEB-0223",
  "history": [
    {
      "epoch": "2026-03-28T19:12:58.108320Z",
      "apogee_km": 1203.3942278394325,
      "perigee_km": 1200.1410843591284,
      "latitude_deg": 9.812236832199256e-06,
      "longitude_deg": 160.7728675947718,
      "height_km": 1204.737535365948,
      "semi_major_axis_km": 7579.90465609928,
      "eccentricity": 0.00021459,
      "inclination_deg": 87.8934,
      "raan_deg": 275.2309,
      "arg_perigee_deg": 92.755,
      "mean_anomaly_deg": 267.3826,
      "mean_motion_rev_day": 13.1554936
    },
    {
      "epoch": "2026-03-29T00:41:32.141472Z",
      "apogee_km": 1203.3969733370832,
      "perigee_km": 1200.1391301458443,
      "latitude_deg": -2.47527267482056e-05,
      "longitude_deg": 78.36056519654457,
      "height_km": 1204.7395633374842,
      "semi_major_axis_km": 7579.9050517414635,
      "eccentricity": 0.0002149,
      "inclination_deg": 87.8934,
      "raan_deg": 275.1853,
      "arg_perigee_deg": 92.8085,
      "mean_anomaly_deg": 267.3291,
      "mean_motion_rev_day": 13.15549257
    },
    {
      "epoch": "2026-03-30T00:25:19.649856Z",
      "apogee_km": 1203.4007325534994,
      "perigee_km": 1200.1353094704464,
      "latitude_deg": -8.701000579514435e-05,
      "longitude_deg": 81.24046096969033,
      "height_km": 1204.7328776972975,
      "semi_major_axis_km": 7579.905021011972,
      "eccentricity": 0.0002154,
      "inclination_deg": 87.8935,
      "raan_deg": 274.9877,
      "arg_perigee_deg": 92.5682,
      "mean_anomaly_deg": 267.5694,
      "mean_motion_rev_day": 13.15549265
    },
    {
      "epoch": "2026-03-30T05:53:53.679552Z",
      "apogee_km": 1203.4007895379254,
      "perigee_km": 1200.1341539067907,
      "latitude_deg": 1.2057505475488418e-06,
      "longitude_deg": -1.1719221690505222,
      "height_km": 1204.7274567255977,
      "semi_major_axis_km": 7579.904471722358,
      "eccentricity": 0.00021548,
      "inclination_deg": 87.8934,
      "raan_deg": 274.942,
      "arg_perigee_deg": 92.3968,
      "mean_anomaly_deg": 267.7409,
      "mean_motion_rev_day": 13.15549408
    },
    {
      "epoch": "2026-03-30T13:11:59.081568Z",
      "apogee_km": 1203.391022591055,
      "perigee_km": 1200.1450040681457,
      "latitude_deg": 5.2537297924467637e-05,
      "longitude_deg": -111.0550903117977,
      "height_km": 1204.7193791903555,
      "semi_major_axis_km": 7579.9050133296,
      "eccentricity": 0.00021412,
      "inclination_deg": 87.8935,
      "raan_deg": 274.8812,
      "arg_perigee_deg": 92.107,
      "mean_anomaly_deg": 268.0306,
      "mean_motion_rev_day": 13.15549267
    },
    {
      "epoch": "2026-03-30T22:19:35.763456Z",
      "apogee_km": 1203.4008287490024,
      "perigee_km": 1200.1320711852386,
      "latitude_deg": 8.058755574166072e-05,
      "longitude_deg": 111.59124329390849,
      "height_km": 1204.7176923909199,
      "semi_major_axis_km": 7579.90344996712,
      "eccentricity": 0.00021562,
      "inclination_deg": 87.8935,
      "raan_deg": 274.8052,
      "arg_perigee_deg": 92.0891,
      "mean_anomaly_deg": 268.0487,
      "mean_motion_rev_day": 13.15549674
    },
    {
      "epoch": "2026-03-31T18:24:20.604960Z",
      "apogee_km": 1203.405197085508,
      "perigee_km": 1200.1291624990017,
      "latitude_deg": 2.0069798069018704e-05,
      "longitude_deg": 169.41228237129482,
      "height_km": 1204.707478884505,
      "semi_major_axis_km": 7579.904179792255,
      "eccentricity": 0.0002161,
      "inclination_deg": 87.8933,
      "raan_deg": 274.6377,
      "arg_perigee_deg": 91.7016,
      "mean_anomaly_deg": 268.4362,
      "mean_motion_rev_day": 13.15549484
    },
    {
      "epoch": "2026-04-01T10:50:02.707872Z",
      "apogee_km": 1203.4064337124528,
      "perigee_km": 1200.1258516323032,
      "latitude_deg": -1.887816494027712e-05,
      "longitude_deg": -77.82463582036105,
      "height_km": 1204.6946850321704,
      "semi_major_axis_km": 7579.903142672378,
      "eccentricity": 0.0002164,
      "inclination_deg": 87.8933,
      "raan_deg": 274.5009,
      "arg_perigee_deg": 91.2885,
      "mean_anomaly_deg": 268.8493,
      "mean_motion_rev_day": 13.15549754
    },
    {
      "epoch": "2026-04-02T17:51:55.655424Z",
      "apogee_km": 1203.407876694776,
      "perigee_km": 1200.1242626849871,
      "latitude_deg": 5.481193079483068e-05,
      "longitude_deg": 175.1720400134948,
      "height_km": 1204.6793446161719,
      "semi_major_axis_km": 7579.903069689882,
      "eccentricity": 0.0002166,
      "inclination_deg": 87.8936,
      "raan_deg": 274.2426,
      "arg_perigee_deg": 90.755,
      "mean_anomaly_deg": 269.3829,
      "mean_motion_rev_day": 13.15549773
    },
    {
      "epoch": "2026-04-02T21:30:58.375008Z",
      "apogee_km": 1203.4076038397616,
      "perigee_km": 1200.1256571658278,
      "latitude_deg": -3.331614200628461e-05,
      "longitude_deg": 120.23037409627082,
      "height_km": 1204.677992382384,
      "semi_major_axis_km": 7579.903630502795,
      "eccentricity": 0.00021649,
      "inclination_deg": 87.8934,
      "raan_deg": 274.2122,
      "arg_perigee_deg": 90.6881,
      "mean_anomaly_deg": 269.4497,
      "mean_motion_rev_day": 13.15549627
    },
    {
      "epoch": "2026-04-03T17:35:43.245024Z",
      "apogee_km": 1203.4143313907261,
      "perigee_km": 1200.120105017494,
      "latitude_deg": -2.6904185414361868e-05,
      "longitude_deg": 178.0515953577102,
      "height_km": 1204.672546731497,
      "semi_major_axis_km": 7579.904218204109,
      "eccentricity": 0.0002173,
      "inclination_deg": 87.8936,
      "raan_deg": 274.045,
      "arg_perigee_deg": 90.4762,
      "mean_anomaly_deg": 269.6617,
      "mean_motion_rev_day": 13.15549474
    },
    {
      "epoch": "2026-04-04T11:50:56.664096Z",
      "apogee_km": 1203.4121591053163,
      "perigee_km": 1200.1132351591305,
      "latitude_deg": -6.317087575532228e-05,
      "longitude_deg": -96.65607321019544,
      "height_km": 1204.6601689999848,
      "semi_major_axis_km": 7579.899697132223,
      "eccentricity": 0.00021761,
      "inclination_deg": 87.8936,
      "raan_deg": 273.8929,
      "arg_perigee_deg": 90.2026,
      "mean_anomaly_deg": 269.9353,
      "mean_motion_rev_day": 13.15550651
    },
    {
      "epoch": "2026-04-05T13:24:15.588000Z",
      "apogee_km": 1203.4004752838537,
      "perigee_km": 1200.1317178724848,
      "latitude_deg": -3.469719223456031e-05,
      "longitude_deg": -121.2473403469507,
      "height_km": 1204.6525562755037,
      "semi_major_axis_km": 7579.9030965781685,
      "eccentricity": 0.00021562,
      "inclination_deg": 87.8937,
      "raan_deg": 273.68,
      "arg_perigee_deg": 89.8174,
      "mean_anomaly_deg": 270.3203,
      "mean_motion_rev_day": 13.15549766
    },
    {
      "epoch": "2026-04-05T20:42:20.943360Z",
      "apogee_km": 1203.399036611987,
      "perigee_km": 1200.1305829516095,
      "latitude_deg": 6.785392851267522e-05,
      "longitude_deg": 128.86958742011754,
      "height_km": 1204.6568118306648,
      "semi_major_axis_km": 7579.901809781798,
      "eccentricity": 0.0002156,
      "inclination_deg": 87.8937,
      "raan_deg": 273.6191,
      "arg_perigee_deg": 90.0122,
      "mean_anomaly_deg": 270.1256,
      "mean_motion_rev_day": 13.15550101
    },
    {
      "epoch": "2026-04-05T22:31:52.316544Z",
      "apogee_km": 1203.3993697528867,
      "perigee_km": 1200.1324316026949,
      "latitude_deg": -2.1152780411801128e-05,
      "longitude_deg": 101.39869667497497,
      "height_km": 1204.658385695081,
      "semi_major_axis_km": 7579.902900677791,
      "eccentricity": 0.0002155,
      "inclination_deg": 87.8937,
      "raan_deg": 273.6039,
      "arg_perigee_deg": 90.0286,
      "mean_anomaly_deg": 270.1091,
      "mean_motion_rev_day": 13.15549817
    },
    {
      "epoch": "2026-04-07T11:02:19.416480Z",
      "apogee_km": 1203.3908849522604,
      "perigee_km": 1200.1533541691142,
      "latitude_deg": 4.6891002251097475e-06,
      "longitude_deg": -88.01763360835304,
      "height_km": 1204.639813883519,
      "semi_major_axis_km": 7579.909119560687,
      "eccentricity": 0.00021356,
      "inclination_deg": 87.8937,
      "raan_deg": 273.2998,
      "arg_perigee_deg": 89.1505,
      "mean_anomaly_deg": 270.987,
      "mean_motion_rev_day": 13.15548198
    },
    {
      "epoch": "2026-04-08T10:46:07.020768Z",
      "apogee_km": 1203.3850831747131,
      "perigee_km": 1200.1631661520642,
      "latitude_deg": 2.9993549106430483e-05,
      "longitude_deg": -85.13823880794094,
      "height_km": 1204.621303341865,
      "semi_major_axis_km": 7579.911124663388,
      "eccentricity": 0.00021253,
      "inclination_deg": 87.8939,
      "raan_deg": 273.1021,
      "arg_perigee_deg": 88.4161,
      "mean_anomaly_deg": 271.7213,
      "mean_motion_rev_day": 13.15547676
    },
    {
      "epoch": "2026-04-09T12:19:26.017248Z",
      "apogee_km": 1203.3924142499027,
      "perigee_km": 1200.1588235266854,
      "latitude_deg": -5.8657652970532385e-05,
      "longitude_deg": -109.73001517270067,
      "height_km": 1204.6226617795135,
      "semi_major_axis_km": 7579.912618888294,
      "eccentricity": 0.0002133,
      "inclination_deg": 87.894,
      "raan_deg": 272.889,
      "arg_perigee_deg": 88.417,
      "mean_anomaly_deg": 271.7204,
      "mean_motion_rev_day": 13.15547287
    },
    {
      "epoch": "2026-04-10T10:13:42.314016Z",
      "apogee_km": 1203.387066048931,
      "perigee_km": 1200.1640872213457,
      "latitude_deg": 3.730537255807714e-05,
      "longitude_deg": -79.37980424710537,
      "height_km": 1204.595905160404,
      "semi_major_axis_km": 7579.912576635138,
      "eccentricity": 0.0002126,
      "inclination_deg": 87.8941,
      "raan_deg": 272.7067,
      "arg_perigee_deg": 87.4615,
      "mean_anomaly_deg": 272.6759,
      "mean_motion_rev_day": 13.15547298
    }
  ]
}